{"type": "FeatureCollection", "features": [ {"type": "Feature", "properties": {"norad_id": 34031, "name": "COSMOS 2251 DEB", "group": "cosmos-2251-debris", "lat": -14.198339218236432, "lon": -65.89969079353584, "alt_km": 684.7333022070625, "timestamp": "2025-12-26T05:31:12.900059+00:00", "meta": {"OBJECT_NAME": "COSMOS 2251 DEB", "OBJECT_ID": "1993-036HS", "EPOCH": "2025-12-25T17:42:22.590144", "MEAN_MOTION": 14.59834823, "ECCENTRICITY": 0.002284, "INCLINATION": 74.013, "RA_OF_ASC_NODE": 110.8807, "ARG_OF_PERICENTER": 230.7538, "MEAN_ANOMALY": 258.1518, "EPHEMERIS_TYPE": 0, "CLASSIFICATION_TYPE": "U", "NORAD_CAT_ID": 34031, "ELEMENT_SET_NO": 999, "REV_AT_EPOCH": 88755, "BSTAR": 0.0013538468, "MEAN_MOTION_DOT": 6.473e-05, "MEAN_MOTION_DDOT": 0}, "tle": {"line1": "1 34031U 93036HS  25359.73776146  .00006473  00000+0  13538-2 0  9998", "line2": "2 34031  74.0130 110.8807 0022840 230.7538 258.1518 14.59834823887557"}}, "geometry": {"type": "Point", "coordinates": [-65.89969079353584, -14.198339218236432]}}, {"type": "Feature", "properties": {"norad_id": 34035, "name": "COSMOS 2251 DEB", "group": "cosmos-2251-debris", "lat": -16.834437602222504, "lon": -41.19111102480166, "alt_km": 693.0199828895002, "timestamp": "2025-12-26T05:31:12.900069+00:00", "meta": {"OBJECT_NAME": "COSMOS 2251 DEB", "OBJECT_ID": "1993-036HW", "EPOCH": "2025-12-25T08:47:59.113824", "MEAN_MOTION": 14.52104917, "ECCENTRICITY": 0.0045298, "INCLINATION": 74.0663, "RA_OF_ASC_NODE": 325.3908, "ARG_OF_PERICENTER": 324.5878, "MEAN_ANOMALY": 186.3967, "EPHEMERIS_TYPE": 0, "CLASSIFICATION_TYPE": "U", "NORAD_CAT_ID": 34035, "ELEMENT_SET_NO": 999, "REV_AT_EPOCH": 88149, "BSTAR": 0.0019229, "MEAN_MOTION_DOT": 7.871e-05, "MEAN_MOTION_DDOT": 0}, "tle": {"line1": "1 34035U 93036HW  25359.36665641  .00007871  00000+0  19229-2 0  9994", "line2": "2 34035  74.0663 325.3908 0045298 324.5878 186.3967 14.52104917881492"}}, "geometry": {"type": "Point", "coordinates": [-41.19111102480166, -16.834437602222504]}}, {"type": "Feature", "properties": {"norad_id": 34036, "name": "COSMOS 2251 DEB", "group": "cosmos-2251-debris", "lat": -11.11280287800142, "lon": -54.75695761406018, "alt_km": 578.2881484977243, "timestamp": "2025-12-26T05:31:12.900080+00:00", "meta": {"OBJECT_NAME": "COSMOS 2251 DEB", "OBJECT_ID": "1993-036HX", "EPOCH": "2025-12-25T17:26:00.244608", "MEAN_MOTION": 14.96010186, "ECCENTRICITY": 0.00095279, "INCLINATION": 74.0198, "RA_OF_ASC_NODE": 123.034, "ARG_OF_PERICENTER": 149.1238, "MEAN_ANOMALY": 211.0509, "EPHEMERIS_TYPE": 0, "CLASSIFICATION_TYPE": "U", "NORAD_CAT_ID": 34036, "ELEMENT_SET_NO": 999, "REV_AT_EPOCH": 88764, "BSTAR": 0.0040265374, "MEAN_MOTION_DOT": 0.00045487, "MEAN_MOTION_DDOT": 0}, "tle": {"line1": "1 34036U 93036HX  25359.72639172  .00045487  00000+0  40265-2 0  9994", "line2": "2 34036  74.0198 123.0340 0009527 149.1238 211.0509 14.96010186887648"}}, "geometry": {"type": "Point", "coordinates": [-54.75695761406018, -11.11280287800142]}}, {"type": "Feature", "properties": {"norad_id": 34037, "name": "COSMOS 2251 DEB", "group": "cosmos-2251-debris", "lat": -1.0262647764832828, "lon": -153.95482917701895, "alt_km": 790.9416066391786, "timestamp": "2025-12-26T05:31:12.900090+00:00", "meta": {"OBJECT_NAME": "COSMOS 2251 DEB", "OBJECT_ID": "1993-036HY", "EPOCH": "2025-12-25T18:38:37.857120", "MEAN_MOTION": 14.34696999, "ECCENTRICITY": 0.00518166, "INCLINATION": 74.0509, "RA_OF_ASC_NODE": 26.5808, "ARG_OF_PERICENTER": 72.5186, "MEAN_ANOMALY": 288.162, "EPHEMERIS_TYPE": 0, "CLASSIFICATION_TYPE": "U", "NORAD_CAT_ID": 34037, "ELEMENT_SET_NO": 999, "REV_AT_EPOCH": 87904, "BSTAR": 0.00043274831, "MEAN_MOTION_DOT": 1.218e-05, "MEAN_MOTION_DDOT": 0}, "tle": {"line1": "1 34037U 93036HY  25359.77682705  .00001218  00000+0  43275-3 0  9999", "line2": "2 34037  74.0509  26.5808 0051816  72.5186 288.1620 14.34696999879048"}}, "geometry": {"type": "Point", "coordinates": [-153.95482917701895, -1.0262647764832828]}}, {"type": "Feature", "properties": {"norad_id": 34040, "name": "COSMOS 2251 DEB", "group": "cosmos-2251-debris", "lat": 72.31601998356973, "lon": 159.07732740211173, "alt_km": 1047.994996688306, "timestamp": "2025-12-26T05:31:12.900100+00:00", "meta": {"OBJECT_NAME": "COSMOS 2251 DEB", "OBJECT_ID": "1993-036JB", "EPOCH": "2025-12-25T13:16:19.371072", "MEAN_MOTION": 13.68397011, "ECCENTRICITY": 0.034346, "INCLINATION": 73.9555, "RA_OF_ASC_NODE": 44.6903, "ARG_OF_PERICENTER": 355.4682, "MEAN_ANOMALY": 4.3342, "EPHEMERIS_TYPE": 0, "CLASSIFICATION_TYPE": "U", "NORAD_CAT_ID": 34040, "ELEMENT_SET_NO": 999, "REV_AT_EPOCH": 83775, "BSTAR": 0.00082663, "MEAN_MOTION_DOT": 1.044e-05, "MEAN_MOTION_DDOT": 0}, "tle": {"line1": "1 34040U 93036JB  25359.55300198  .00001044  00000+0  82663-3 0  9993", "line2": "2 34040  73.9555  44.6903 0343460 355.4682   4.3342 13.68397011837751"}}, "geometry": {"type": "Point", "coordinates": [159.07732740211173, 72.31601998356973]}}, {"type": "Feature", "properties": {"norad_id": 34045, "name": "COSMOS 2251 DEB", "group": "cosmos-2251-debris", "lat": -14.90507146844444, "lon": 110.51685602402021, "alt_km": 800.9766992194864, "timestamp": "2025-12-26T05:31:12.900111+00:00", "meta": {"OBJECT_NAME": "COSMOS 2251 DEB", "OBJECT_ID": "1993-036JG", "EPOCH": "2025-12-25T22:13:39.353952", "MEAN_MOTION": 14.34076146, "ECCENTRICITY": 0.00262116, "INCLINATION": 74.0396, "RA_OF_ASC_NODE": 286.7039, "ARG_OF_PERICENTER": 6.6639, "MEAN_ANOMALY": 60.6866, "EPHEMERIS_TYPE": 0, "CLASSIFICATION_TYPE": "U", "NORAD_CAT_ID": 34045, "ELEMENT_SET_NO": 999, "REV_AT_EPOCH": 88222, "BSTAR": 0.00010193978, "MEAN_MOTION_DOT": 2.6e-06, "MEAN_MOTION_DDOT": 0}, "tle": {"line1": "1 34045U 93036JG  25359.92614993  .00000260  00000+0  10194-3 0  9999", "line2": "2 34045  74.0396 286.7039 0026211   6.6639  60.6866 14.34076146882224"}}, "geometry": {"type": "Point", "coordinates": [110.51685602402021, -14.90507146844444]}}, {"type": "Feature", "properties": {"norad_id": 34046, "name": "COSMOS 2251 DEB", "group": "cosmos-2251-debris", "lat": 63.48341531524217, "lon": 20.281610775172517, "alt_km": 677.3375850601797, "timestamp": "2025-12-26T05:31:12.900121+00:00", "meta": {"OBJECT_NAME": "COSMOS 2251 DEB", "OBJECT_ID": "1993-036JH", "EPOCH": "2025-12-25T22:40:20.640576", "MEAN_MOTION": 14.46580903, "ECCENTRICITY": 0.00745712, "INCLINATION": 74.04, "RA_OF_ASC_NODE": 345.8149, "ARG_OF_PERICENTER": 65.3438, "MEAN_ANOMALY": 317.8928, "EPHEMERIS_TYPE": 0, "CLASSIFICATION_TYPE": "U", "NORAD_CAT_ID": 34046, "ELEMENT_SET_NO": 999, "REV_AT_EPOCH": 88017, "BSTAR": 0.0013150737, "MEAN_MOTION_DOT": 4.884e-05, "MEAN_MOTION_DDOT": 0}, "tle": {"line1": "1 34046U 93036JH  25359.94468334  .00004884  00000+0  13151-2 0  9999", "line2": "2 34046  74.0400 345.8149 0074571  65.3438 317.8928 14.46580903880173"}}, "geometry": {"type": "Point", "coordinates": [20.281610775172517, 63.48341531524217]}}, {"type": "Feature", "properties": {"norad_id": 34050, "name": "COSMOS 2251 DEB", "group": "cosmos-2251-debris", "lat": 20.44086109139689, "lon": -6.98594544771769, "alt_km": 765.6655413369472, "timestamp": "2025-12-26T05:31:12.900131+00:00", "meta": {"OBJECT_NAME": "COSMOS 2251 DEB", "OBJECT_ID": "1993-036JM", "EPOCH": "2025-12-25T11:04:48.351072", "MEAN_MOTION": 13.96210406, "ECCENTRICITY": 0.0214837, "INCLINATION": 74.0883, "RA_OF_ASC_NODE": 348.2285, "ARG_OF_PERICENTER": 49.3018, "MEAN_ANOMALY": 72.7253, "EPHEMERIS_TYPE": 0, "CLASSIFICATION_TYPE": "U", "NORAD_CAT_ID": 34050, "ELEMENT_SET_NO": 999, "REV_AT_EPOCH": 85609, "BSTAR": 0.0007946, "MEAN_MOTION_DOT": 1.304e-05, "MEAN_MOTION_DDOT": 0}, "tle": {"line1": "1 34050U 93036JM  25359.46167073  .00001304  00000+0  79460-3 0  9997", "line2": "2 34050  74.0883 348.2285 0214837  49.3018  72.7253 13.96210406856092"}}, "geometry": {"type": "Point", "coordinates": [-6.98594544771769, 20.44086109139689]}}, {"type": "Feature", "properties": {"norad_id": 34053, "name": "COSMOS 2251 DEB", "group": "cosmos-2251-debris", "lat": -47.85628877457939, "lon": 59.11605313773797, "alt_km": 1303.0903756001262, "timestamp": "2025-12-26T05:31:12.900141+00:00", "meta": {"OBJECT_NAME": "COSMOS 2251 DEB", "OBJECT_ID": "1993-036JQ", "EPOCH": "2025-12-25T17:41:26.483712", "MEAN_MOTION": 13.49180156, "ECCENTRICITY": 0.04229052, "INCLINATION": 73.8426, "RA_OF_ASC_NODE": 221.2267, "ARG_OF_PERICENTER": 7.6434, "MEAN_ANOMALY": 353.0847, "EPHEMERIS_TYPE": 0, "CLASSIFICATION_TYPE": "U", "NORAD_CAT_ID": 34053, "ELEMENT_SET_NO": 999, "REV_AT_EPOCH": 82859, "BSTAR": 0.00055457461, "MEAN_MOTION_DOT": 5.84e-06, "MEAN_MOTION_DDOT": 0}, "tle": {"line1": "1 34053U 93036JQ  25359.73711208  .00000584  00000+0  55457-3 0  9994", "line2": "2 34053  73.8426 221.2267 0422905   7.6434 353.0847 13.49180156828595"}}, "geometry": {"type": "Point", "coordinates": [59.11605313773797, -47.85628877457939]}}, {"type": "Feature", "properties": {"norad_id": 34056, "name": "COSMOS 2251 DEB", "group": "cosmos-2251-debris", "lat": -73.98312321356269, "lon": -32.43119715371576, "alt_km": 919.0154228129004, "timestamp": "2025-12-26T05:31:12.900151+00:00", "meta": {"OBJECT_NAME": "COSMOS 2251 DEB", "OBJECT_ID": "1993-036JT", "EPOCH": "2025-12-25T13:35:12.468192", "MEAN_MOTION": 14.20599559, "ECCENTRICITY": 0.0123692, "INCLINATION": 74.0581, "RA_OF_ASC_NODE": 53.4416, "ARG_OF_PERICENTER": 97.9047, "MEAN_ANOMALY": 19.5232, "EPHEMERIS_TYPE": 0, "CLASSIFICATION_TYPE": "U", "NORAD_CAT_ID": 34056, "ELEMENT_SET_NO": 999, "REV_AT_EPOCH": 86593, "BSTAR": 0.00073456, "MEAN_MOTION_DOT": 1.683e-05, "MEAN_MOTION_DDOT": 0}, "tle": {"line1": "1 34056U 93036JT  25359.56611653  .00001683  00000+0  73456-3 0  9991", "line2": "2 34056  74.0581  53.4416 0123692  97.9047  19.5232 14.20599559865939"}}, "geometry": {"type": "Point", "coordinates": [-32.43119715371576, -73.98312321356269]}}]}